#aV2011 12 11  0  0   .00000000      96 DD+AD WGS84 FIT  NGA
## 1666       .00000000   900.00000000 55906  .0000000000000
+   31     1  2  3  4  5  6  7  8  9 10 11 12 13 14 15 16 17
+         18 19 20 21 22 23 25 26 27 28 29 30 31 32  0  0  0
+          0  0  0  0  0  0  0  0  0  0  0  0  0  0  0  0  0
+          0  0  0  0  0  0  0  0  0  0  0  0  0  0  0  0  0
+          0  0  0  0  0  0  0  0  0  0  0  0  0  0  0  0  0
++         0  0  0  0  0  0  0  0  0  0  0  0  0  0  0  0  0
++         0  0  0  0  0  0  0  0  0  0  0  0  0  0  0  0  0
++         0  0  0  0  0  0  0  0  0  0  0  0  0  0  0  0  0
++         0  0  0  0  0  0  0  0  0  0  0  0  0  0  0  0  0
++         0  0  0  0  0  0  0  0  0  0  0  0  0  0  0  0  0
%c cc cc ccc ccc cccc cccc cccc cccc ccccc ccccc ccccc ccccc
%c cc cc ccc ccc cccc cccc cccc cccc ccccc ccccc ccccc ccccc
%f  0.0000000  0.000000000  0.00000000000  0.000000000000000
%f  0.0000000  0.000000000  0.00000000000  0.000000000000000
%i    0    0    0    0      0      0      0      0         0
%i    0    0    0    0      0      0      0      0         0
/*      NGA, ST. LOUIS,MO.                                  
/*   EPHEMERIS COMPUTED FROM  3 DAYS OF DATA                
/* CCCCCCCCCCCCCCCCCCCCCCCCCCCCCCCCCCCCCCCCCCCCCCCCCCCCCCCCC
/* CCCCCCCCCCCCCCCCCCCCCCCCCCCCCCCCCCCCCCCCCCCCCCCCCCCCCCCCC
*  2011 12 11 18 30   .00000000                                                 
P  1  14582.873684  13329.317294 -17772.383051    137.470023                    
V  1 -22591.856046    316.169093 -18307.862897       .167084                    
P  2  10262.168852 -14142.021987  19948.996459    369.748512                    
V  2  25269.992870   2752.841887 -11592.841144       .017194                    
P  3  -9507.712449  24490.689490  -3081.823592    806.988913                    
V  3  -5070.452728   1318.707416  30917.765019       .052172                    
P  4  22570.433176  -7354.076632  12007.920432     30.233094                    
V  4  15332.070975   3782.397679 -25653.234087       .112750                    
P  5    344.642461 -22282.684419  14334.718578   -256.613025                    
V  5  10267.529328  15346.659041  23693.570201      -.048351                    
P  6 -14019.071269  22373.919033    955.742419     13.898456                    
V  6  -2723.637206  -2851.215636  31358.212847       .042742                    
P  7  25009.926565   6503.416683   6688.189981     42.692157                    
V  7  -8529.776254   1390.716725  30404.373690       .023714                    
P  8  26450.373607   1254.357825  -4518.030711       .188939                    
V  8   5447.576649   2036.007909  31492.673767      -.000025                    
P  9 -10413.300130 -14153.132984 -20456.999815    124.323174                    
V  9  24718.204806    514.815638 -13324.051480       .026097                    
P 10  14386.575383  -5542.757891  21399.310060    -21.864937                    
V 10  11799.999940  25142.734663  -1016.152906      -.012081                    
P 11   8519.700410  15246.986450 -20425.170819   -212.217006                    
V 11 -24766.692565   5813.988060  -5762.477157      -.035115                    
P 12 -11706.772155 -23938.373868    706.178492     40.016061                    
V 12   1549.551230  -1694.893944 -32000.154929       .022502                    
P 13  13699.031133   5941.134153  21838.325060    236.805869                    
V 13 -17294.736747  21982.894352   4758.737389      -.020180                    
P 14 -19793.184225  12672.539739 -12057.634702    185.305888                    
V 14   7879.320802 -13619.886692 -26990.399800       .016783                    
P 15   -296.111113 -21029.437234 -16098.219816    -97.013686                    
V 15  12985.278319 -16110.353469  20992.360203       .009181                    
P 16  -1615.578739  21555.191448  15241.972698   -213.423862                    
V 16  -9546.526505 -16997.334053  23337.840829      -.019062                    
P 17  19660.146426 -11239.665177 -13525.963082    161.102326                    
V 17  -8268.748699  15631.348234 -24967.775477      -.020915                    
P 18 -18217.198688 -11375.051526 -15513.341107    171.377852                    
V 18  -6546.709239 -19321.203406  21026.090111       .018571                    
P 19  -3946.694825  21530.927956 -14812.565833   -214.094977                    
V 19 -13637.856517  13294.420781  23372.514146      -.039103                    
P 20  13388.385941  22957.137400   1019.475412     57.828327                    
V 20  -2513.573243   3059.076438 -31013.396600       .007761                    
P 21 -26414.160117  -4245.127443   3108.932523   -190.233423                    
V 21   3586.995818  -2917.268854  30376.442924      -.024664                    
P 22 -15300.321450   4478.435310 -21076.049271    143.099630                    
V 22 -11384.628589 -24801.962530   2859.797750      -.000347                    
P 23   7235.053756  14927.793926  20689.450426    251.730813                    
V 23 -15731.489042  21092.004019 -10082.912156      -.033071                    
P 25 -16855.940417 -17903.674360  10060.302814     29.870988                    
V 25  -3718.173872 -12452.130141 -28290.896689       .007053                    
P 26  11251.616597 -22669.751676  -7956.558828   -257.907926                    
V 26   7465.730390  -6033.577220  30392.571285      -.137823                    
P 27  -3704.655197 -14404.128323 -21402.151403    334.749605                    
V 27  28619.302300    497.545995  -4738.130074       .039520                    
P 28  15544.514559    130.843993 -21036.938127     92.216528                    
V 28  10695.930911  25764.355480   7625.836548       .035564                    
P 29 -13627.932547  -7019.519927  21750.513757    265.190148                    
V 29  15982.030815 -22337.664524   2850.307389       .033549                    
P 30  -7707.060877  14698.514922  20379.041700     26.003625                    
V 30 -14990.766613 -22112.871415  10114.878766      -.107971                    
P 31 -20104.941220   8718.779994  15369.735352    181.174915                    
V 31 -18846.735087  -2901.654195 -23104.333500       .050108                    
P 32   6114.438349  25565.702535  -5015.959404   -375.610026                    
V 32  -4830.007043  -5196.688040 -30444.498526      -.058774                    
EOF
